[{"OBJECT_NAME":"STARLINK-2194","OBJECT_ID":"2021-017BB","EPOCH":"2026-03-09T16:20:18.883104","MEAN_MOTION":15.29387975,"ECCENTRICITY":0.00011499,"INCLINATION":53.1565,"RA_OF_ASC_NODE":203.8644,"ARG_OF_PERICENTER":81.8928,"MEAN_ANOMALY":278.2202,"EPHEMERIS_TYPE":0,"CLASSIFICATION_TYPE":"U","NORAD_CAT_ID":47771,"ELEMENT_SET_NO":999,"REV_AT_EPOCH":27787,"BSTAR":0.00051885776,"MEAN_MOTION_DOT":0.0001466,"MEAN_MOTION_DDOT":0},{"OBJECT_NAME":"STARLINK-30073","OBJECT_ID":"2023-079T","EPOCH":"2026-03-09T22:00:01.999584","MEAN_MOTION":15.27575359,"ECCENTRICITY":0.00020534,"INCLINATION":43.0005,"RA_OF_ASC_NODE":291.0924,"ARG_OF_PERICENTER":288.9142,"MEAN_ANOMALY":240.4544,"EPHEMERIS_TYPE":0,"CLASSIFICATION_TYPE":"U","NORAD_CAT_ID":56840,"ELEMENT_SET_NO":999,"REV_AT_EPOCH":574,"BSTAR":0.00066101027,"MEAN_MOTION_DOT":0.0001797,"MEAN_MOTION_DDOT":0}]
